[
    {
        "Altitude(m)": 617710.7049199798,
        "Argument of Periapsis(deg)": 0.0,
        "Eccentricity": 0.0,
        "Inclination(deg)": 60.0,
        "Latitude(deg)": -41.10283681110909,
        "Longitude(deg)": -90.03335010613637,
        "Mean Anomaly(deg)": 310.9091000000001,
        "RAAN(deg)": 40.0,
        "Satellite Name": "Test1 195",
        "Satellite Number": 195,
        "Semi-Major Axis(m)": 6980739.136638005,
        "Time(s)": 0
    },
    {
        "Altitude(m)": 617518.0031817366,
        "Argument of Periapsis(deg)": 0.00010418945913296404,
        "Eccentricity": 0.0,
        "Inclination(deg)": 60.0,
        "Latitude(deg)": -40.63704357741294,
        "Longitude(deg)": -89.53655551818758,
        "Mean Anomaly(deg)": 311.5292061454619,
        "RAAN(deg)": 39.99957995086026,
        "Satellite Name": "Test1 195",
        "Satellite Number": 195,
        "Semi-Major Axis(m)": 6980739.136638005,
        "Time(s)": 10
    }
]